[{"OBJECT_NAME":"SITRO-AIS 13","OBJECT_ID":"2024-199J","EPOCH":"2026-03-09T21:50:28.432320","MEAN_MOTION":14.9731664,"ECCENTRICITY":0.00074694,"INCLINATION":97.3312,"RA_OF_ASC_NODE":274.5755,"ARG_OF_PERICENTER":53.5174,"MEAN_ANOMALY":306.6736,"EPHEMERIS_TYPE":0,"CLASSIFICATION_TYPE":"U","NORAD_CAT_ID":61743,"ELEMENT_SET_NO":999,"REV_AT_EPOCH":11713,"BSTAR":0.00039590089,"MEAN_MOTION_DOT":4.542e-5,"MEAN_MOTION_DDOT":0},{"OBJECT_NAME":"STARLINK-35913","OBJECT_ID":"2025-293B","EPOCH":"2026-03-09T19:04:56.072352","MEAN_MOTION":14.98325516,"ECCENTRICITY":0.00036107,"INCLINATION":70.001,"RA_OF_ASC_NODE":94.1909,"ARG_OF_PERICENTER":271.7545,"MEAN_ANOMALY":88.32,"EPHEMERIS_TYPE":0,"CLASSIFICATION_TYPE":"U","NORAD_CAT_ID":67004,"ELEMENT_SET_NO":999,"REV_AT_EPOCH":1490,"BSTAR":0.00023817162,"MEAN_MOTION_DOT":2.75e-5,"MEAN_MOTION_DDOT":0}]
